*******************************************************************************
 Revised: September 28, 2017           Jupiter                              599
 
 PHYSICAL DATA (updated 2018-Aug-15):
  Mass x10^24 (kg)      = 1898.13+-.19    Density (g/cm^3)       =   1.326
  Equat. radius (1 bar) = 71492+-4 km     Polar radius (km)      =  66854+-10
  Vol. Mean Radius (km) = 69911+-6        Flattening             =   0.06487
  Geometric Albedo      = 0.52            Rocky core mass (Mc/M) =  0.0261
  Sid. rot. period (III)= 9h 55m 29.71 s  Sid. rot. rate (rad/s) =  0.00017585 
  Mean solar day, hrs   = ~9.9259         
  GM (km^3/s^2)         = 126686534.911   GM 1-sigma (km^3/s^2)  =  +-1.5
  Equ. grav, ge (m/s^2) = 24.79           Pol. grav, gp (m/s^2)  =  28.34
  Vis. magnitude V(1,0) = -9.40
  Vis. mag. (opposition)= -2.70           Obliquity to orbit     =  3.13 deg
  Sidereal orbit period = 11.861982204 y  Sidereal orbit period  = 4332.589 d
  Mean daily motion     = 0.0831294 deg/d Mean orbit speed, km/s = 13.0697
  Atmos. temp. (1 bar)  = 165+-5 K        Escape speed, km/s    =  59.5           
  A_roche(ice)/Rp       =  2.76           Hill's sphere rad. Rp  = 740
                                 Perihelion   Aphelion     Mean
  Solar Constant (W/m^2)         56           46           51
  Maximum Planetary IR (W/m^2)   13.7         13.4         13.6
  Minimum Planetary IR (W/m^2)   13.7         13.4         13.6
*******************************************************************************
 

 

*******************************************************************************
Ephemeris / WWW_USER Sat Mar  9 19:55:48 2019 Pasadena, USA      / Horizons    
*******************************************************************************
Target body name: Jupiter (599)                   {source: jup341}
Center body name: Solar System Barycenter (0)     {source: DE431mx}
Center-site name: BODY CENTER
*******************************************************************************
Start time      : A.D. 1970-Jan-01 00:00:00.0000 TDB
Stop  time      : A.D. 2100-Jan-01 00:00:00.0000 TDB
Step-size       : 1 calendar years
*******************************************************************************
Center geodetic : 0.00000000,0.00000000,0.0000000 {E-lon(deg),Lat(deg),Alt(km)}
Center cylindric: 0.00000000,0.00000000,0.0000000 {E-lon(deg),Dxy(km),Dz(km)}
Center radii    : (undefined)                                                  
Output units    : KM-S                                                         
Output type     : GEOMETRIC cartesian states
Output format   : 2 (position and velocity)
Reference frame : ICRF/J2000.0                                                 
Coordinate systm: Earth Mean Equator and Equinox of Reference Epoch            
*******************************************************************************
            JDTDB,            Calendar Date (TDB),                      X,                      Y,                      Z,                     VX,                     VY,                     VZ,
**************************************************************************************************************************************************************************************************
$$SOE
2465424.500000000, A.D. 2038-Jan-01 00:00:00.0000, -3.061219433633527E+08,  6.576386082340988E+08,  2.893274798435354E+08, -1.217235213998723E+01, -4.256826278387103E+00, -1.528316938154262E+00,
2465789.500000000, A.D. 2039-Jan-01 00:00:00.0000, -6.327934036490529E+08,  4.425157432474808E+08,  2.050708734425490E+08, -8.130652752105762E+00, -9.026057215542886E+00, -3.670939083969839E+00,
2466154.500000000, A.D. 2040-Jan-01 00:00:00.0000, -7.999721353338377E+08,  1.146597863239324E+08,  6.861354636736073E+07, -2.294859340811395E+00, -1.130976661856492E+01, -4.791735580224914E+00,
2466520.500000000, A.D. 2041-Jan-01 00:00:00.0000, -7.731087914955430E+08, -2.424014172286385E+08, -8.508196037075591E+07,  3.942719148227515E+00, -1.080875293823040E+01, -4.728766001889318E+00,
2466885.500000000, A.D. 2042-Jan-01 00:00:00.0000, -5.611644535461736E+08, -5.404950846381019E+08, -2.180044812518714E+08,  9.239780221158252E+00, -7.696235157221964E+00, -3.523435131130615E+00,
2467250.500000000, A.D. 2043-Jan-01 00:00:00.0000, -2.126691065594506E+08, -7.062943001010308E+08, -2.975459628262086E+08,  1.241793362482469E+01, -2.549372729177133E+00, -1.394796537915397E+00,
2467615.500000000, A.D. 2044-Jan-01 00:00:00.0000,  1.893513155081326E+08, -6.906748341148080E+08, -3.006331490233764E+08,  1.249924557034797E+01,  3.589974263976390E+00,  1.234430478356501E+00,
2467981.500000000, A.D. 2045-Jan-01 00:00:00.0000,  5.388079159074937E+08, -4.848731087560061E+08, -2.209295338514245E+08,  9.014694546326712E+00,  9.172910324001384E+00,  3.712061425117235E+00,
2468346.500000000, A.D. 2046-Jan-01 00:00:00.0000,  7.274499108237675E+08, -1.373487239528555E+08, -7.657115633574875E+07,  2.577567010793808E+00,  1.231692380710224E+01,  5.216184681812897E+00,
2468711.500000000, A.D. 2047-Jan-01 00:00:00.0000,  6.902921919777334E+08,  2.521086190176639E+08,  9.125364686712101E+07, -4.889781812684175E+00,  1.171062990567752E+01,  5.138121255551288E+00,
2469076.500000000, A.D. 2048-Jan-01 00:00:00.0000,  4.358657372208563E+08,  5.624354943243135E+08,  2.304501218360676E+08, -1.078472757252424E+01,  7.462588710114048E+00,  3.460845354524165E+00,
2469442.500000000, A.D. 2049-Jan-01 00:00:00.0000,  4.605166812326342E+07,  7.013662077252194E+08,  2.994814488991604E+08, -1.321038568449286E+01,  1.165672669169383E+00,  8.211364567587829E-01,
2469807.500000000, A.D. 2050-Jan-01 00:00:00.0000, -3.575754852559217E+08,  6.376758072210009E+08,  2.820067524309161E+08, -1.179467351126594E+01, -5.030110708599862E+00, -1.868832293170227E+00,
2470172.500000000, A.D. 2051-Jan-01 00:00:00.0000, -6.665799527669051E+08,  4.025019588585185E+08,  1.887331082335996E+08, -7.414007169113651E+00, -9.505273054343442E+00, -3.893392443542576E+00,
2470537.500000000, A.D. 2052-Jan-01 00:00:00.0000, -8.085268527770579E+08,  6.541104045214580E+07,  4.771382825466955E+07, -1.438432123967744E+00, -1.141121352725477E+01, -4.855652886528730E+00,
2470903.500000000, A.D. 2053-Jan-01 00:00:00.0000, -7.549294047787375E+08, -2.887565361655053E+08, -1.053821456961747E+08,  4.751193549721815E+00, -1.052859088588205E+01, -4.627937692273783E+00,
2471268.500000000, A.D. 2054-Jan-01 00:00:00.0000, -5.206682561330560E+08, -5.727303605506512E+08, -2.327892694588861E+08,  9.821644688879484E+00, -7.094305243072674E+00, -3.279468601750456E+00,
2471633.500000000, A.D. 2055-Jan-01 00:00:00.0000, -1.593255779220672E+08, -7.158989486202521E+08, -3.029403017172979E+08,  1.262863067757369E+01, -1.741156691791881E+00, -1.053444167371462E+00,
2471998.500000000, A.D. 2056-Jan-01 00:00:00.0000,  2.420057879365717E+08, -6.738103781978902E+08, -2.946645507985308E+08,  1.223735285720637E+01,  4.425315696755215E+00,  1.599047611042176E+00,
2472364.500000000, A.D. 2057-Jan-01 00:00:00.0000,  5.754775809984593E+08, -4.444649458268459E+08, -2.044811803731011E+08,  8.282967893958979E+00,  9.786985191632407E+00,  3.993170741699329E+00,
2472729.500000000, A.D. 2058-Jan-01 00:00:00.0000,  7.357991766018640E+08, -8.433254764965117E+07, -5.403143216156597E+07,  1.560433788962332E+00,  1.247643007144577E+01,  5.309372412057760E+00,
2473094.500000000, A.D. 2059-Jan-01 00:00:00.0000,  6.664933577100880E+08,  3.013932222568595E+08,  1.129728431123315E+08, -5.849898018211185E+00,  1.132292934782561E+01,  4.995139238738250E+00,
2473459.500000000, A.D. 2060-Jan-01 00:00:00.0000,  3.873559797455537E+08,  5.924949960040778E+08,  2.445244537196658E+08, -1.134745361144688E+01,  6.673527440278412E+00,  3.136158822589145E+00,
2473825.500000000, A.D. 2061-Jan-01 00:00:00.0000, -1.172000708114080E+07,  7.038951184258546E+08,  3.019721990918818E+08, -1.322768254086424E+01,  2.644861545777486E-01,  4.348776035010323E-01,
2474190.500000000, A.D. 2062-Jan-01 00:00:00.0000, -4.079105966139430E+08,  6.138340061760876E+08,  2.730045489287285E+08, -1.133104926885061E+01, -5.764974270343005E+00, -2.195329076776003E+00,
2474555.500000000, A.D. 2063-Jan-01 00:00:00.0000, -6.970371122644144E+08,  3.603353164967177E+08,  1.713866870001743E+08, -6.654420892767471E+00, -9.914766471943430E+00, -4.087639085055434E+00,
2474920.500000000, A.D. 2064-Jan-01 00:00:00.0000, -8.128827757690694E+08,  1.628131145047005E+07,  2.674574163852069E+07, -5.799121068092959E-01, -1.144317408104766E+01, -4.890419134951039E+00,
2475286.500000000, A.D. 2065-Jan-01 00:00:00.0000, -7.329326095428226E+08, -3.329554534865924E+08, -1.248761944035786E+08,  5.527182722928498E+00, -1.019608116427544E+01, -4.504386860799841E+00,
2475651.500000000, A.D. 2066-Jan-01 00:00:00.0000, -4.775209040683993E+08, -6.014050565043616E+08, -2.461395686141649E+08,  1.036045211385389E+01, -6.460363894563355E+00, -3.020754052941430E+00,
2476016.500000000, A.D. 2067-Jan-01 00:00:00.0000, -1.048526510434580E+08, -7.211821753142921E+08, -3.065350607286107E+08,  1.278659368161186E+01, -9.166093111011292E-01, -7.037214918911763E-01,
2476381.500000000, A.D. 2068-Jan-01 00:00:00.0000,  2.941015915238156E+08, -6.524411483975052E+08, -2.867741377959215E+08,  1.191661976998508E+01,  5.253381203768088E+00,  1.961730292530038E+00,
2476747.500000000, A.D. 2069-Jan-01 00:00:00.0000,  6.098290634658742E+08, -4.000690275485676E+08, -1.862890904621009E+08,  7.496791679775557E+00,  1.036857873407833E+01,  4.261525071136676E+00,
2477112.500000000, A.D. 2070-Jan-01 00:00:00.0000,  7.404398746834919E+08, -2.877793690469509E+07, -3.033737486322644E+07,  5.163518031452242E-01,  1.256944928045373E+01,  5.374453942769861E+00,
2477477.500000000, A.D. 2071-Jan-01 00:00:00.0000,  6.387846369310615E+08,  3.510472168161257E+08,  1.349184087918297E+08, -6.785846939400306E+00,  1.086233175935562E+01,  4.820377086399599E+00,
